UNISAT-6                
1 40012U 14033C   26115.68452140  .00002875  00000+0  31437-3 0  9995
2 40012  97.7813 269.3514 0044136 240.5269 119.1541 14.87925532638353
DUCHIFAT-1              
1 40021U 14033M   26115.67407459  .00065753  00000+0  94543-3 0  9998
2 40021  98.0542 167.8552 0004049 235.8806 124.2063 15.55855059647564
QB50P1                  
1 40025U 14033R   26115.74003683  .00008784  00000+0  44240-3 0  9991
2 40025  98.0996 123.2402 0010241  53.8253 306.3925 15.17410648645079
LILACSAT-2              
1 40908U 15049K   26115.80500633  .00018127  00000+0  32796-3 0  9998
2 40908  97.4735 150.7048 0008847  87.2669 272.9594 15.49690589587631
FOX-1A (AO-85)          
1 40967U 15058D   26115.62624115  .00003280  00000+0  30051-3 0  9991
2 40967  64.7745  82.2838 0128554  77.1823 284.3617 14.90635436105733
CAS-2T & KS-1Q          
1 41847U 16066G   26115.80730700  .00000649  00000+0  10151-3 0  9992
2 41847  98.3831 192.1339 0340993 288.5659  67.8779 14.44566894497237
RADFXSAT (FOX-1B)       
1 43017U 17073E   26115.60339125  .00008540  00000+0  37834-3 0  9991
2 43017  97.4781 343.9160 0154067 149.5769 211.4514 15.11739469457441
DIWATA-2B               
1 43678U 18084H   26115.81536983  .00002418  00000+0  19843-3 0  9999
2 43678  98.1068 309.7957 0013273 349.1817  10.9118 15.00188053408363
ES'HAIL 2               
1 43700U 18090A   26115.78606564  .00000131  00000+0  00000+0 0  9992
2 43700   0.0334  87.0170 0001287 331.5686 103.9806  1.00274159 27150
FOX-1CLIFF (AO-95)      
1 43770U 18099N   26115.68900561  .00011478  00000+0  45457-3 0  9996
2 43770  97.4424 176.1653 0009635 163.7420 196.4129 15.25544715405211
ITASAT                  
1 43786U 18099AE  26115.64089420  .00006733  00000+0  33025-3 0  9997
2 43786  97.4081 168.2160 0013266 169.0938 191.0587 15.18357907404934
JY1SAT (JO-97)          
1 43803U 18099AX  26115.86963531  .00019141  00000+0  62146-3 0  9998
2 43803  97.4169 178.5804 0007483 100.2078 260.0007 15.31960258405610
UWE-4                   
1 43880U 18111E   26115.73586044  .00029701  00000+0  67491-3 0  9995
2 43880  97.5857  41.8460 0009792 139.4628 220.7350 15.42922425402684
TIANYAN 01              
1 44881U 19093C   26115.80851882  .00000289  00000+0  38720-4 0  9994
2 44881  97.7542 189.3155 0012114 258.8246 101.1608 14.86428792343634
RS-44 & BREEZE-KM R/B   
1 44909U 19096E   26115.78006691  .00000004  00000+0 -22322-4 0  9992
2 44909  82.5261  14.5305 0216373 266.9379  90.6945 12.79747976295642
SALSAT                  
1 46495U 20068K   26115.73859803  .00008478  00000+0  30336-3 0  9996
2 46495  97.8866 115.6436 0011520 121.8273 238.4089 15.29000493307347
XW-3 (CAS-9)            
1 50466U 21131B   26115.85041825  .00000375  00000+0  12948-3 0  9998
2 50466  98.4944 208.5320 0002925 249.0237 111.0639 14.41304665227574
